{
  "type": "FeatureCollection",
  "features": [
    {
      "type": "Feature",
      "properties": {
        "norad_id": 44334,
        "name": "EUTELSAT 7C",
        "group": "eutelsat",
        "lat": 0.036912239091953195,
        "lon": -25.832302649259418,
        "alt_km": 35787.61788642315,
        "timestamp": "2025-12-06T16:45:42.397937+00:00",
        "meta_object_name": "EUTELSAT 7C",
        "meta_object_id": "2019-034B",
        "meta_epoch": "2025-12-06T03:25:30.364320",
        "meta_mean_motion": 1.00270039,
        "meta_eccentricity": 0.00034504,
        "meta_inclination": 0.0751,
        "meta_ra_of_asc_node": 179.1623,
        "meta_arg_of_pericenter": 60.529,
        "meta_mean_anomaly": 253.8532,
        "meta_ephemeris_type": 0,
        "meta_classification_type": "U",
        "meta_norad_cat_id": 44334,
        "meta_element_set_no": 999,
        "meta_rev_at_epoch": 490,
        "meta_bstar": 0,
        "meta_mean_motion_dot": 5.6e-07,
        "meta_mean_motion_ddot": 0,
        "tle_line1": "1 44334U 19034B   25340.14271255  .00000056  00000+0  00000+0 0  9995",
        "tle_line2": "2 44334   0.0751 179.1623 0003450  60.5290 253.8532  1.00270039  4909"
      },
      "geometry": {
        "type": "Point",
        "coordinates": [
          -25.832302649259418,
          0.036912239091953195
        ]
      }
    },
    {
      "type": "Feature",
      "properties": {
        "norad_id": 44624,
        "name": "EUTELSAT 5 WEST B",
        "group": "eutelsat",
        "lat": -0.019967861894069867,
        "lon": -37.81002727975073,
        "alt_km": 35780.345379178456,
        "timestamp": "2025-12-06T16:45:42.397949+00:00",
        "meta_object_name": "EUTELSAT 5 WEST B",
        "meta_object_id": "2019-067A",
        "meta_epoch": "2025-12-06T06:08:38.706720",
        "meta_mean_motion": 1.00270399,
        "meta_eccentricity": 0.00035924,
        "meta_inclination": 0.0675,
        "meta_ra_of_asc_node": 334.5207,
        "meta_arg_of_pericenter": 281.3365,
        "meta_mean_anomaly": 266.6069,
        "meta_ephemeris_type": 0,
        "meta_classification_type": "U",
        "meta_norad_cat_id": 44624,
        "meta_element_set_no": 999,
        "meta_rev_at_epoch": 2250,
        "meta_bstar": 0,
        "meta_mean_motion_dot": -3.4e-07,
        "meta_mean_motion_ddot": 0,
        "tle_line1": "1 44624U 19067A   25340.25600355 -.00000034  00000+0  00000+0 0  9999",
        "tle_line2": "2 44624   0.0675 334.5207 0003592 281.3365 266.6069  1.00270399 22506"
      },
      "geometry": {
        "type": "Point",
        "coordinates": [
          -37.81002727975073,
          -0.019967861894069867
        ]
      }
    },
    {
      "type": "Feature",
      "properties": {
        "norad_id": 45027,
        "name": "EUTELSAT KONNECT",
        "group": "eutelsat",
        "lat": -0.05836826995046817,
        "lon": -25.65838152204799,
        "alt_km": 35781.91119930647,
        "timestamp": "2025-12-06T16:45:42.397960+00:00",
        "meta_object_name": "EUTELSAT KONNECT",
        "meta_object_id": "2020-005B",
        "meta_epoch": "2025-12-05T22:17:29.870880",
        "meta_mean_motion": 1.00267987,
        "meta_eccentricity": 0.00018557,
        "meta_inclination": 0.0712,
        "meta_ra_of_asc_node": 98.3329,
        "meta_arg_of_pericenter": 187.648,
        "meta_mean_anomaly": 130.555,
        "meta_ephemeris_type": 0,
        "meta_classification_type": "U",
        "meta_norad_cat_id": 45027,
        "meta_element_set_no": 999,
        "meta_rev_at_epoch": 2238,
        "meta_bstar": 0,
        "meta_mean_motion_dot": 5.8e-07,
        "meta_mean_motion_ddot": 0,
        "tle_line1": "1 45027U 20005B   25339.92881795  .00000058  00000+0  00000+0 0  9997",
        "tle_line2": "2 45027   0.0712  98.3329 0001855 187.6480 130.5550  1.00267987 22381"
      },
      "geometry": {
        "type": "Point",
        "coordinates": [
          -25.65838152204799,
          -0.05836826995046817
        ]
      }
    },
    {
      "type": "Feature",
      "properties": {
        "norad_id": 49056,
        "name": "EUTELSAT QUANTUM",
        "group": "eutelsat",
        "lat": 0.0003759496050707325,
        "lon": 14.890543441120625,
        "alt_km": 35791.1343564945,
        "timestamp": "2025-12-06T16:45:42.397972+00:00",
        "meta_object_name": "EUTELSAT QUANTUM",
        "meta_object_id": "2021-069B",
        "meta_epoch": "2025-12-06T05:46:38.731584",
        "meta_mean_motion": 1.00270382,
        "meta_eccentricity": 0.00037051,
        "meta_inclination": 0.0261,
        "meta_ra_of_asc_node": 39.9142,
        "meta_arg_of_pericenter": 227.5936,
        "meta_mean_anomaly": 302.1388,
        "meta_ephemeris_type": 0,
        "meta_classification_type": "U",
        "meta_norad_cat_id": 49056,
        "meta_element_set_no": 999,
        "meta_rev_at_epoch": 1599,
        "meta_bstar": 0,
        "meta_mean_motion_dot": 1.34e-06,
        "meta_mean_motion_ddot": 0,
        "tle_line1": "1 49056U 21069B   25340.24072606  .00000134  00000+0  00000+0 0  9999",
        "tle_line2": "2 49056   0.0261  39.9142 0003705 227.5936 302.1388  1.00270382 15994"
      },
      "geometry": {
        "type": "Point",
        "coordinates": [
          14.890543441120625,
          0.0003759496050707325
        ]
      }
    },
    {
      "type": "Feature",
      "properties": {
        "norad_id": 53765,
        "name": "EUTELSAT KONNECT VHTS",
        "group": "eutelsat",
        "lat": -0.043878829492053836,
        "lon": -30.120370024389608,
        "alt_km": 35787.577660550516,
        "timestamp": "2025-12-06T16:45:42.397983+00:00",
        "meta_object_name": "EUTELSAT KONNECT VHTS",
        "meta_object_id": "2022-110A",
        "meta_epoch": "2025-12-06T06:08:38.706720",
        "meta_mean_motion": 1.00269437,
        "meta_eccentricity": 0.00027173,
        "meta_inclination": 0.0615,
        "meta_ra_of_asc_node": 107.7029,
        "meta_arg_of_pericenter": 127.6893,
        "meta_mean_anomaly": 294.7694,
        "meta_ephemeris_type": 0,
        "meta_classification_type": "U",
        "meta_norad_cat_id": 53765,
        "meta_element_set_no": 999,
        "meta_rev_at_epoch": 489,
        "meta_bstar": 0,
        "meta_mean_motion_dot": 2.5e-07,
        "meta_mean_motion_ddot": 0,
        "tle_line1": "1 53765U 22110A   25340.25600355  .00000025  00000+0  00000+0 0  9997",
        "tle_line2": "2 53765   0.0615 107.7029 0002717 127.6893 294.7694  1.00269437  4893"
      },
      "geometry": {
        "type": "Point",
        "coordinates": [
          -30.120370024389608,
          -0.043878829492053836
        ]
      }
    },
    {
      "type": "Feature",
      "properties": {
        "norad_id": 54048,
        "name": "EUTELSAT HOTBIRD 13F",
        "group": "eutelsat",
        "lat": 0.03694077359081116,
        "lon": -19.855121656750516,
        "alt_km": 35776.52622462711,
        "timestamp": "2025-12-06T16:45:42.397994+00:00",
        "meta_object_name": "EUTELSAT HOTBIRD 13F",
        "meta_object_id": "2022-134A",
        "meta_epoch": "2025-12-06T01:44:32.536320",
        "meta_mean_motion": 1.00271355,
        "meta_eccentricity": 0.00023431,
        "meta_inclination": 0.0469,
        "meta_ra_of_asc_node": 294.3782,
        "meta_arg_of_pericenter": 57.7205,
        "meta_mean_anomaly": 122.1557,
        "meta_ephemeris_type": 0,
        "meta_classification_type": "U",
        "meta_norad_cat_id": 54048,
        "meta_element_set_no": 999,
        "meta_rev_at_epoch": 1144,
        "meta_bstar": 0,
        "meta_mean_motion_dot": 9.6e-07,
        "meta_mean_motion_ddot": 0,
        "tle_line1": "1 54048U 22134A   25340.07259880  .00000096  00000+0  00000+0 0  9999",
        "tle_line2": "2 54048   0.0469 294.3782 0002343  57.7205 122.1557  1.00271355 11442"
      },
      "geometry": {
        "type": "Point",
        "coordinates": [
          -19.855121656750516,
          0.03694077359081116
        ]
      }
    },
    {
      "type": "Feature",
      "properties": {
        "norad_id": 54225,
        "name": "EUTELSAT HOTBIRD 13G",
        "group": "eutelsat",
        "lat": 0.036798154976512315,
        "lon": -19.850436885338286,
        "alt_km": 35793.50894151867,
        "timestamp": "2025-12-06T16:45:42.398006+00:00",
        "meta_object_name": "EUTELSAT HOTBIRD 13G",
        "meta_object_id": "2022-146A",
        "meta_epoch": "2025-12-05T15:28:18.292224",
        "meta_mean_motion": 1.00270321,
        "meta_eccentricity": 0.00019255,
        "meta_inclination": 0.0461,
        "meta_ra_of_asc_node": 235.0424,
        "meta_arg_of_pericenter": 313.1322,
        "meta_mean_anomaly": 131.5912,
        "meta_ephemeris_type": 0,
        "meta_classification_type": "U",
        "meta_norad_cat_id": 54225,
        "meta_element_set_no": 999,
        "meta_rev_at_epoch": 552,
        "meta_bstar": 0,
        "meta_mean_motion_dot": 9.7e-07,
        "meta_mean_motion_ddot": 0,
        "tle_line1": "1 54225U 22146A   25339.64465616  .00000097  00000+0  00000+0 0  9997",
        "tle_line2": "2 54225   0.0461 235.0424 0001925 313.1322 131.5912  1.00270321  5523"
      },
      "geometry": {
        "type": "Point",
        "coordinates": [
          -19.850436885338286,
          0.036798154976512315
        ]
      }
    }
  ]
}